[{"OBJECT_NAME":"STARLINK-30931","OBJECT_ID":"2023-180M","EPOCH":"2026-03-09T22:12:15.948576","MEAN_MOTION":15.2674416,"ECCENTRICITY":8.208e-5,"INCLINATION":43.0053,"RA_OF_ASC_NODE":39.9328,"ARG_OF_PERICENTER":198.366,"MEAN_ANOMALY":161.7162,"EPHEMERIS_TYPE":0,"CLASSIFICATION_TYPE":"U","NORAD_CAT_ID":58413,"ELEMENT_SET_NO":999,"REV_AT_EPOCH":12779,"BSTAR":2.2262741e-5,"MEAN_MOTION_DOT":3.38e-6,"MEAN_MOTION_DDOT":0},{"OBJECT_NAME":"OBJECT G","OBJECT_ID":"2025-155G","EPOCH":"2026-03-09T22:09:56.639808","MEAN_MOTION":15.27590702,"ECCENTRICITY":0.00081871,"INCLINATION":97.4488,"RA_OF_ASC_NODE":37.3259,"ARG_OF_PERICENTER":154.1528,"MEAN_ANOMALY":206.0122,"EPHEMERIS_TYPE":0,"CLASSIFICATION_TYPE":"U","NORAD_CAT_ID":64882,"ELEMENT_SET_NO":999,"REV_AT_EPOCH":6559,"BSTAR":0.0004792617,"MEAN_MOTION_DOT":0.00012876,"MEAN_MOTION_DDOT":0}]
